{"type":"FeatureCollection","features":[{"type":"Feature","properties":{"id":"d2-streshnevo-maryina-roshcha","name":"Стрешнево — Марьина Роща","toMoscowDirection":"coordinate-order","lengthMeters":9459.515,"stationSpanMeters":8959.492,"coreStartMeters":249.966,"coreEndMeters":9209.458,"extensionBeforeMeters":249.966,"extensionAfterMeters":250.057,"cumulativeMeters":[0,38.628,81.499,99.929,249.966,259.431,428.012,442.127,471.49,626.45,700.208,823.194,881.012,893.149,1060.201,1197.221,1233.498,1357.119,1490.105,1606.418,1739.871,1882.388,2128.406,2233.308,2296.415,2431.898,2561.787,2632.205,2689.996,2724.8,2752.366,2780.357,2809.757,2842.847,2869.861,2902.334,2941.629,2975.331,3004.468,3035.969,3070.484,3107.544,3142.707,3176.51,3214.55,3257.711,3379.824,3461.604,3541.413,3644.368,3896.95,3933.118,4065.163,4108.928,4150.672,4247.968,4310.295,4368.513,4447.496,4490.863,4514.213,4542.205,4602.431,4628.733,4662.026,4705.916,4749.895,4777.963,4805.726,4851.207,4889.563,4936.002,4974.232,5010.493,5046.228,5081.44,5161.583,5268.326,5474.353,5823.456,5855.774,6073.609,6111.743,6252.139,6384.312,6422.683,6487.704,6527.442,6563.486,6594.559,6621.382,6645.662,6710.367,6767.188,6816.164,6862.107,6916.909,6966.353,6980.209,7027.963,7230.918,7262.657,7292.73,7316.07,7339.322,7382.798,7429.423,7471.037,7530.226,7639.499,7662.712,7701.444,7757.409,7805.079,8010.137,8053.743,8098.555,8141.299,8190.729,8234.223,8271.752,8305.794,8322.903,8339.016,8356.856,8373.901,8387.719,8403.651,8428.51,8461.278,8482.241,8503.099,8561.424,8614.866,8632.636,8660.371,8661.699,8702.953,8730.154,8743.604,8759.265,8782.775,8790.852,8853.689,8858.85,8892.414,8928.183,8957.949,8980.067,9029.953,9057.401,9140.78,9152.179,9172.181,9209.458,9251.554,9303.938,9350.95,9379.578,9397.624,9417.116,9432.053,9445.378,9450.234,9459.515],"osmWayIds":["way/746341239","way/741634161","way/741634160","way/1221802492","way/697545998","way/215624247","way/141602572","way/141602578","way/141602562","way/141602581","way/141602552","way/141602587","way/141602553","way/141602568","way/141602557","way/1445923018","way/1445923017","way/141602547","way/141602561","way/1074824121","way/1074824124","way/1074824122","way/1074824126","way/207731580","way/749524987","way/1149652943"],"geometryRole":"representative-path-for-both-directions","selectionMethod":"continuous shortest undirected route on OSM railway=rail, usage=main, no service tag; extensions follow existing tracks","source":"user-uploaded export.geojson","attribution":"© OpenStreetMap contributors","license":"ODbL-1.0","attributionUrl":"https://www.openstreetmap.org/copyright","coreOsmWayIds":["way/741634160","way/1221802492","way/697545998","way/215624247","way/141602572","way/141602578","way/141602562","way/141602581","way/141602552","way/141602587","way/141602553","way/141602568","way/141602557","way/1445923018","way/1445923017","way/141602547","way/141602561","way/1074824121","way/1074824124","way/1074824122","way/1074824126","way/207731580","way/749524987"],"stationOrder":["streshnevo","krasny-baltiets","grazhdanskaya","dmitrovskaya","maryina-roshcha"],"distanceMethod":"spherical geodesic (mean Earth radius 6371008.8 m); local projection for station snapping"},"geometry":{"type":"LineString","coordinates":[[37.48595511,55.815333883],[37.4865727,55.8153175],[37.487258,55.8152977],[37.4875526,55.8152892],[37.489950628,55.815216675],[37.4901019,55.8152121],[37.4927963,55.8151305],[37.4930219,55.8151237],[37.4934912,55.8151095],[37.4959679,55.8150346],[37.4971469,55.8150004],[37.4991128,55.8149435],[37.500037,55.8149167],[37.500231,55.8149111],[37.5029038,55.8148697],[37.5050958,55.8148303],[37.505676,55.8148174],[37.5076521,55.8147609],[37.5097803,55.8147825],[37.5116359,55.8148671],[37.5137655,55.8149602],[37.5160401,55.815057],[37.5199663,55.8152264],[37.5216406,55.8152974],[37.5226477,55.8153411],[37.5248102,55.8154321],[37.5268831,55.8155217],[37.528007,55.8155695],[37.5289294,55.8156086],[37.529486,55.8156214],[37.5299272,55.8156244],[37.5303751,55.8156184],[37.5308445,55.8155996],[37.5313702,55.8155634],[37.5317967,55.8155234],[37.532305,55.8154624],[37.5329112,55.8153682],[37.5334208,55.8152688],[37.5338539,55.8151716],[37.5343126,55.815054],[37.5348021,55.8149101],[37.5353104,55.8147383],[37.5357757,55.8145604],[37.5362076,55.8143773],[37.5366716,55.8141558],[37.5371772,55.8138913],[37.5385566,55.8131133],[37.5395,55.8126035],[37.5404052,55.8120971],[37.5415769,55.8114461],[37.5444369,55.8098408],[37.5448576,55.8096174],[37.5463488,55.808776],[37.546866,55.8085106],[37.547324,55.8082373],[37.5484321,55.8076226],[37.5491346,55.8072247],[37.5498087,55.8068633],[37.5507626,55.8063973],[37.5513136,55.8061602],[37.5516141,55.8060354],[37.5519907,55.8058991],[37.5528335,55.8056364],[37.553214,55.8055353],[37.5536957,55.8054074],[37.554348,55.8052611],[37.5550137,55.8051328],[37.5554392,55.805052],[37.5558682,55.8049871],[37.556586,55.8049196],[37.5571951,55.8048772],[37.5579375,55.804859],[37.5585487,55.8048735],[37.5591254,55.8049095],[37.559689,55.8049638],[37.5602394,55.8050316],[37.5614871,55.8051982],[37.5631327,55.8054555],[37.5663076,55.8059548],[37.5716626,55.8068492],[37.5721599,55.806929],[37.5755089,55.8074727],[37.5760927,55.8075726],[37.5782553,55.8079149],[37.5802805,55.8082579],[37.5808715,55.8083516],[37.5818823,55.8084904],[37.5825016,55.8085716],[37.5830685,55.8086315],[37.5835623,55.8086644],[37.5839911,55.8086757],[37.5843796,55.8086793],[37.5854151,55.8086808],[37.5863244,55.8086837],[37.5871038,55.8086372],[37.5878276,55.8085646],[37.588678,55.8084441],[37.5894322,55.8083096],[37.5896409,55.8082675],[37.5903439,55.8080991],[37.5932485,55.8072824],[37.5936994,55.807151],[37.5940961,55.8069979],[37.5944039,55.806879],[37.5947106,55.8067606],[37.5952604,55.806521],[37.5958103,55.8062376],[37.5962716,55.8059677],[37.5968724,55.8055562],[37.5979302,55.8047737],[37.5981507,55.8046057],[37.5985336,55.8043318],[37.599121,55.8039519],[37.5995774,55.8036084],[37.601577,55.8021463],[37.6020357,55.8018508],[37.6025507,55.8015704],[37.6030979,55.8013398],[37.6037604,55.801097],[37.6043907,55.8009312],[37.6049593,55.8008227],[37.605489,55.8007514],[37.6057566,55.800719],[37.6060101,55.8006926],[37.6062924,55.8006689],[37.6065633,55.8006512],[37.6067839,55.8006429],[37.6070387,55.8006387],[37.6074363,55.8006327],[37.6079599,55.8006176],[37.6082953,55.8006168],[37.608629,55.800614],[37.6095622,55.800614],[37.6104163,55.8006369],[37.6106998,55.8006491],[37.6111426,55.8006654],[37.6111638,55.8006662],[37.6118222,55.8006926],[37.6122564,55.8007093],[37.6124711,55.8007175],[37.6127209,55.8007286],[37.6130959,55.8007452],[37.6132247,55.8007512],[37.6142277,55.8007901],[37.6143101,55.8007932],[37.6148459,55.8008136],[37.6154159,55.8008425],[37.6158911,55.8008603],[37.6162442,55.8008736],[37.61704,55.8009082],[37.6174779,55.800927],[37.6188076,55.8009877],[37.6189895,55.8009951],[37.6193087,55.8010081],[37.6199034693,55.8010332734],[37.6205751,55.8010617],[37.6214109,55.801097],[37.6221609,55.8011294],[37.6226176,55.8011491],[37.6229056,55.8011608],[37.6232171,55.8011694],[37.6234559,55.8011747],[37.6236691,55.8011754],[37.6237468,55.8011752],[37.6238953019,55.8011747013]]}}]}
